[{"OBJECT_NAME":"TRITON-1","OBJECT_ID":"2013-066M","EPOCH":"2026-03-10T00:12:50.372640","MEAN_MOTION":14.81201223,"ECCENTRICITY":0.0090141,"INCLINATION":97.8288,"RA_OF_ASC_NODE":341.0923,"ARG_OF_PERICENTER":196.684,"MEAN_ANOMALY":163.1403,"EPHEMERIS_TYPE":0,"CLASSIFICATION_TYPE":"U","NORAD_CAT_ID":39427,"ELEMENT_SET_NO":999,"REV_AT_EPOCH":65940,"BSTAR":0.00037393921,"MEAN_MOTION_DOT":3.065e-5,"MEAN_MOTION_DDOT":0},{"OBJECT_NAME":"STARLINK-5487","OBJECT_ID":"2023-021AA","EPOCH":"2026-03-09T16:39:13.019616","MEAN_MOTION":14.98333844,"ECCENTRICITY":0.00031461,"INCLINATION":70.0013,"RA_OF_ASC_NODE":184.3814,"ARG_OF_PERICENTER":267.4295,"MEAN_ANOMALY":92.6504,"EPHEMERIS_TYPE":0,"CLASSIFICATION_TYPE":"U","NORAD_CAT_ID":55652,"ELEMENT_SET_NO":999,"REV_AT_EPOCH":16879,"BSTAR":3.2877177e-5,"MEAN_MOTION_DOT":2.99e-6,"MEAN_MOTION_DDOT":0}]
